ONEWEB-0230             
1 48769U 21045C   24075.92022051 -.00000028  00000+0 -10948-3 0  9991
2 48769  87.8969  63.0927 0002020  82.5345 277.6015 13.15546666136428
ONEWEB-0237             
1 48770U 21045D   24075.45278489 -.00000089  00000+0 -26943-3 0  9998
2 48770  87.8972  63.1113 0001731  72.4340 287.6980 13.15547438136085
ONEWEB-0235             
1 48771U 21045E   24075.95984240  .00000178  00000+0  43948-3 0  9994
2 48771  87.8964  63.0281 0001783  60.6501 299.4807 13.15548024136145
ONEWEB-0242             
1 48772U 21045F   24075.95349109  .00001186  00000+0  31147-2 0  9991
2 48772  87.8962  63.0185 0002021  80.0991 280.0368 13.15557611136186
ONEWEB-0241             
1 48773U 21045G   24075.94080727 -.00002675  00000+0 -71404-2 0  9995
2 48773  87.8972  63.0590 0001429  81.2292 278.9000 13.15561312136098
ONEWEB-0243             
1 48774U 21045H   24075.89645631  .00000021  00000+0  21924-4 0  9996
2 48774  87.8976  63.0263 0001604  70.3153 289.8151 13.15548353136111
ONEWEB-0222             
1 48775U 21045J   24075.95588111  .00000203  00000+0  50519-3 0  9996
2 48775  87.8962  63.0286 0001630  81.2269 278.9045 13.15546408136165
ONEWEB-0244             
1 48776U 21045K   24075.90596016 -.00000055  00000+0 -18100-3 0  9992
2 48776  87.8962  63.0220 0002036  79.1428 280.9931 13.15547412137847
